TIANMU-1 20             
1 58661U 23208B   26197.63290840  .00004434  00000+0  14080-3 0  9998
2 58661  97.4474 314.7612 0006480 206.4015 153.6898 15.33177564141933
TIANMU-1 21             
1 58662U 23208C   26197.57617874  .00005585  00000+0  16386-3 0  9991
2 58662  97.4534 317.5137 0006835 199.0745 161.0244 15.35567669142070
TIANMU-1 22             
1 58663U 23208D   26197.60997419  .00004113  00000+0  13806-3 0  9992
2 58663  97.4527 313.9826 0002871 211.7843 148.3226 15.31439055141839
TIANMU-1 15             
1 58700U 24004A   26197.65452438  .00002888  00000+0  11203-3 0  9997
2 58700  97.4669  23.8452 0006156 222.3736 137.7028 15.26922546140274
TIANMU-1 16             
1 58701U 24004B   26197.64389197  .00002781  00000+0  10770-3 0  9998
2 58701  97.4616  23.0503 0004523 238.7184 121.3612 15.27025566140275
TIANMU-1 17             
1 58702U 24004C   26197.62937654  .00002779  00000+0  10763-3 0  9993
2 58702  97.4643  23.5315 0003974 244.9923 115.0903 15.27023041140269
TIANMU-1 18             
1 58703U 24004D   26197.60554412  .00002728  00000+0  10597-3 0  9998
2 58703  97.4661  23.7705 0003872 218.4084 141.6879 15.26938096140267
INSAT-3DS               
1 58990U 24033A   26197.57058682 -.00000166  00000+0  00000+0 0  9991
2 58990   0.0872 264.5015 0001112 224.2585  93.1167  1.00270836 47360
METEOR-M2 4             
1 59051U 24039A   26197.65670891 -.00000017  00000+0  11947-4 0  9999
2 59051  98.7026 156.5870 0008262  85.1519 275.0602 14.22432221123453
GOES 19                 
1 60133U 24119A   26197.54015725 -.00000259  00000+0  00000+0 0  9999
2 60133   0.0179 112.0632 0000392  92.0452 209.5199  1.00271185  7257
MTG-S1                  
1 64723U 25143A   26197.55497731 -.00000018  00000+0  00000+0 0  9991
2 64723   0.5837 345.4223 0003403 260.8337 247.5253  1.00273920  3712
METOP-SGA1              
1 65159U 25172A   26195.76442858  .00000019  00000+0  29163-4 0  9994
2 65159  98.6631 254.9090 0007098 333.3306  26.7504 14.19819127 47700
FENGYUN 3H              
1 65815U 25219A   26197.42542005  .00000004  00000+0  22433-4 0  9992
2 65815  98.6770 137.6269 0001115  62.4486 297.6803 14.19924884 41534
