OBJECT_NAME,OBJECT_ID,EPOCH,MEAN_MOTION,ECCENTRICITY,INCLINATION,RA_OF_ASC_NODE,ARG_OF_PERICENTER,MEAN_ANOMALY,EPHEMERIS_TYPE,CLASSIFICATION_TYPE,NORAD_CAT_ID,ELEMENT_SET_NO,REV_AT_EPOCH,BSTAR,MEAN_MOTION_DOT,MEAN_MOTION_DDOT
TIANMU-1 20,2023-208B,2026-07-16T15:11:23.285760,15.33177564,.00064801,97.4474,314.7612,206.4015,153.6898,0,U,58661,999,14193,.14079857E-3,.4434E-4,0
TIANMU-1 21,2023-208C,2026-07-16T13:49:41.843136,15.35567669,.00068358,97.4534,317.5137,199.0745,161.0244,0,U,58662,999,14207,.16386376E-3,.5585E-4,0
TIANMU-1 22,2023-208D,2026-07-16T14:38:21.770016,15.31439055,.00028719,97.4527,313.9826,211.7843,148.3226,0,U,58663,999,14183,.13805878E-3,.4113E-4,0
TIANMU-1 15,2024-004A,2026-07-16T15:42:30.906432,15.26922546,.00061563,97.4669,23.8452,222.3736,137.7028,0,U,58700,999,14027,.11202814E-3,.2888E-4,0
TIANMU-1 16,2024-004B,2026-07-16T15:27:12.266208,15.27025566,.00045236,97.4616,23.0503,238.7184,121.3612,0,U,58701,999,14027,.10770083E-3,.2781E-4,0
TIANMU-1 17,2024-004C,2026-07-16T15:06:18.133056,15.27023041,.00039744,97.4643,23.5315,244.9923,115.0903,0,U,58702,999,14026,.10762884E-3,.2779E-4,0
TIANMU-1 18,2024-004D,2026-07-16T14:31:59.011968,15.26938096,.00038728,97.4661,23.7705,218.4084,141.6879,0,U,58703,999,14026,.10596968E-3,.2728E-4,0
INSAT-3DS,2024-033A,2026-07-16T13:41:38.701248,1.00270836,.00011128,0.0872,264.5015,224.2585,93.1167,0,U,58990,999,4736,0,-.166E-5,0
METEOR-M2 4,2024-039A,2026-07-16T15:45:39.649824,14.22432221,.00082622,98.7026,156.5870,85.1519,275.0602,0,U,59051,999,12345,.11947055E-4,-.17E-6,0
GOES 19,2024-119A,2026-07-16T12:57:49.586400,1.00271185,.00003925,0.0179,112.0632,92.0452,209.5199,0,U,60133,999,725,0,-.259E-5,0
MTG-S1,2025-143A,2026-07-16T13:19:10.039584,1.00273920,.00034037,0.5837,345.4223,260.8337,247.5253,0,U,64723,999,371,0,-.18E-6,0
METOP-SGA1,2025-172A,2026-07-14T18:20:46.629312,14.19819127,.00070989,98.6631,254.9090,333.3306,26.7504,0,U,65159,999,4770,.2916334E-4,.19E-6,0
FENGYUN 3H,2025-219A,2026-07-16T10:12:36.292320,14.19924884,.00011158,98.6770,137.6269,62.4486,297.6803,0,U,65815,999,4153,.22433303E-4,.4E-7,0
